#aV2009 12 28  0  0   .00000000      96 DD+AD WGS84 FIT  NGA
## 1564  86400.00000000   900.00000000 55193  .0000000000000
+   32     1  2  3  4  5  6  7  8  9 10 11 12 13 14 15 16 17
+         18 19 20 21 22 23 24 25 26 27 28 29 30 31 32  0  0
+          0  0  0  0  0  0  0  0  0  0  0  0  0  0  0  0  0
+          0  0  0  0  0  0  0  0  0  0  0  0  0  0  0  0  0
+          0  0  0  0  0  0  0  0  0  0  0  0  0  0  0  0  0
++         0  0  0  0  0  0  0  0  0  0  0  0  0  0  0  0  0
++         0  0  0  0  0  0  0  0  0  0  0  0  0  0  0  0  0
++         0  0  0  0  0  0  0  0  0  0  0  0  0  0  0  0  0
++         0  0  0  0  0  0  0  0  0  0  0  0  0  0  0  0  0
++         0  0  0  0  0  0  0  0  0  0  0  0  0  0  0  0  0
%c cc cc ccc ccc cccc cccc cccc cccc ccccc ccccc ccccc ccccc
%c cc cc ccc ccc cccc cccc cccc cccc ccccc ccccc ccccc ccccc
%f  0.0000000  0.000000000  0.00000000000  0.000000000000000
%f  0.0000000  0.000000000  0.00000000000  0.000000000000000
%i    0    0    0    0      0      0      0      0         0
%i    0    0    0    0      0      0      0      0         0
/*      NGA, ST. LOUIS,MO.                                  
/*   EPHEMERIS COMPUTED FROM  3 DAYS OF DATA                
/* CCCCCCCCCCCCCCCCCCCCCCCCCCCCCCCCCCCCCCCCCCCCCCCCCCCCCCCCC
/* CCCCCCCCCCCCCCCCCCCCCCCCCCCCCCCCCCCCCCCCCCCCCCCCCCCCCCCCC
*  2009 12 28 12 30   .00000000                                                 
P  1 -11582.939037  15880.708617 -17912.251873    -74.788840                    
V  1 -22252.776888   4140.607644  18268.076342      -.030109                    
P  2 -15076.208449  -4371.114913 -21490.984482    208.924114                    
V  2   6836.651413 -26345.653617    129.744489       .044565                    
P  3  22777.791300   7191.908279  11618.249691    494.114756                    
V  3   9906.074138  11987.528521 -25711.248093       .052737                    
P  4  -9248.829083 -16743.357648 -18438.794977   -429.147687                    
V  4   8272.032558 -21852.349653  16201.848250      -.188750                    
P  5 -25587.223025   1437.323893  -7155.381237    -23.043725                    
V  5   8107.372245  -4777.799913 -29938.876346       .046149                    
P  6  22317.727976  10726.672184   9930.643125    262.740134                    
V  6   6931.724189  10712.547578 -27538.582498      -.011923                    
P  7   6821.207293 -25574.319593    611.579096      5.247881                    
V  7   2778.229189    -31.365934 -32045.692454      -.006218                    
P  8   -718.259320 -22984.629600  12788.078034      1.454878                    
V  8   7273.034848 -14849.427221 -26741.572475       .005496                    
P  9 -14381.862756  15819.225009  15067.878634     96.645788                    
V  9   3105.843598 -20157.116630  23172.950110       .021621                    
P 10 -23950.706128  -2938.397926 -11649.219288    -31.379809                    
V 10  13552.534195  -5394.931675 -26559.495724      -.009718                    
P 11  12025.649498 -18979.814296  13639.657099    -36.653507                    
V 11   3207.854176  18284.244527  22577.014056      -.021354                    
P 12 -22484.812835  11324.029572  -8196.539114   -170.548742                    
V 12 -10797.851877    107.625539  29698.391672       .050366                    
P 13    -29.156276 -18858.579435 -18821.713272    306.632199                    
V 13  16036.681271  17292.613522 -17480.407004       .000280                    
P 14  14142.781740  21780.375449   6016.132382     -6.728160                    
V 14  -6268.266794  -4337.031238  31041.189573       .045606                    
P 15 -19128.243266   -559.926629  18488.344714   -316.212608                    
V 15 -15536.015854 -17564.571049 -16532.984294       .016266                    
P 16  22766.185826   4094.478824 -13231.593194    -24.346700                    
V 16 -15936.242303   5511.271029 -25373.968886      -.041792                    
P 17 -15231.452275 -21347.526152   4949.486321    116.043929                    
V 17   6100.404278   2715.583408  30768.711406       .035311                    
P 18  -4778.197007  16434.296419  20477.755440     37.873034                    
V 18 -25241.785099   4480.214066  -9976.561271       .026490                    
P 19  18163.080535    300.147653  19507.525592     -6.389663                    
V 19  14920.276759  19610.792512 -13940.020794      -.021216                    
P 20  19054.295769 -14358.499009 -11743.668099     64.516994                    
V 20  15016.274192  -1230.622492  26215.693237      -.008033                    
P 21  -3132.982420  25459.299214   5758.712653    -30.373795                    
V 21  -5915.834682   5651.069446 -30349.437055      -.024190                    
P 22   8875.742445  13846.722443  21028.454494    182.903020                    
V 22 -25627.656183   6406.037054   6573.438886      -.008114                    
P 23  10524.301128 -10757.833999 -21907.000618    383.542162                    
V 23  19352.308857  19864.664808   -753.129236      -.007706                    
P 24 -13385.545400  21589.358169  -8073.485739    248.940919                    
V 24    677.486023 -10685.641047 -29072.103993       .033825                    
P 25   8570.933508 -24475.855907  -5843.842426     65.842467                    
V 25    823.246899   8104.604877 -30717.252020       .097789                    
P 26   7235.909475  21418.648772  13003.693536     -5.371568                    
V 26 -12943.239060 -12004.753870  26359.872738      -.027264                    
P 27 -15506.060810  12105.522612  18503.632433    112.219339                    
V 27   3679.947707 -21805.753695  18114.635393       .033304                    
P 28  -6050.589636 -14202.420719  22092.173293    -24.289026                    
V 28  26265.475792  -5870.491512   3187.793886       .003526                    
P 29  -3400.942063  17012.030071 -20031.314307     85.693432                    
V 29 -18165.124087 -18111.549222 -12202.753535       .029322                    
P 30 -13215.732505  16286.933276 -16645.609653    205.573504                    
V 30 -20129.538173   4099.104672  20527.324094       .033357                    
P 31   9681.930569  14678.274738 -19638.815942    -57.279924                    
V 31  -8032.153387  24148.336888  14084.298541       .011766                    
P 32  24975.352174  -7150.220949  -4278.325113    128.787038                    
V 32   6357.619195   2048.993679  31349.535500      -.078315                    
EOF
